[
    {
        "Altitude(m)": 612502.2060861515,
        "Argument of Periapsis(deg)": 0.0,
        "Eccentricity": 0.0,
        "Inclination(deg)": 60.0,
        "Latitude(deg)": -28.13601028320373,
        "Longitude(deg)": 162.14819627916955,
        "Mean Anomaly(deg)": -32.72729999999996,
        "RAAN(deg)": 280.0,
        "Satellite Name": "Test1 1252",
        "Satellite Number": 1252,
        "Semi-Major Axis(m)": 6980739.136638005,
        "Time(s)": 0
    },
    {
        "Altitude(m)": 612308.6540238403,
        "Argument of Periapsis(deg)": 0.00010418945913296404,
        "Eccentricity": 0.0,
        "Inclination(deg)": 60.0,
        "Latitude(deg)": -27.623066209396377,
        "Longitude(deg)": 162.50167168604364,
        "Mean Anomaly(deg)": -32.1071938545381,
        "RAAN(deg)": 279.99957995086027,
        "Satellite Name": "Test1 1252",
        "Satellite Number": 1252,
        "Semi-Major Axis(m)": 6980739.136638005,
        "Time(s)": 10
    },
    {
        "Altitude(m)": 612116.0708562564,
        "Argument of Periapsis(deg)": 0.0002083789182659281,
        "Eccentricity": 0.0,
        "Inclination(deg)": 60.0,
        "Latitude(deg)": -27.108953266385054,
        "Longitude(deg)": 162.85149592315727,
        "Mean Anomaly(deg)": -31.487087709076356,
        "RAAN(deg)": 279.9991599017205,
        "Satellite Name": "Test1 1252",
        "Satellite Number": 1252,
        "Semi-Major Axis(m)": 6980739.136638005,
        "Time(s)": 20
    },
    {
        "Altitude(m)": 611924.5261699966,
        "Argument of Periapsis(deg)": 0.00031256837739889213,
        "Eccentricity": 0.0,
        "Inclination(deg)": 60.0,
        "Latitude(deg)": -26.593705769787228,
        "Longitude(deg)": 163.19777340706634,
        "Mean Anomaly(deg)": -30.86698156361445,
        "RAAN(deg)": 279.9987398525808,
        "Satellite Name": "Test1 1252",
        "Satellite Number": 1252,
        "Semi-Major Axis(m)": 6980739.136638005,
        "Time(s)": 30
    },
    {
        "Altitude(m)": 611734.08894505,
        "Argument of Periapsis(deg)": 0.0004167578365318562,
        "Eccentricity": 0.0,
        "Inclination(deg)": 60.0,
        "Latitude(deg)": -26.07735718587366,
        "Longitude(deg)": 163.54060683673802,
        "Mean Anomaly(deg)": -30.2468754181527,
        "RAAN(deg)": 279.99831980344106,
        "Satellite Name": "Test1 1252",
        "Satellite Number": 1252,
        "Semi-Major Axis(m)": 6980739.136638005,
        "Time(s)": 40
    },
    {
        "Altitude(m)": 611544.8275242903,
        "Argument of Periapsis(deg)": 0.0005209472956648203,
        "Eccentricity": 0.0,
        "Inclination(deg)": 60.0,
        "Latitude(deg)": -25.55994016396798,
        "Longitude(deg)": 163.88009624881076,
        "Mean Anomaly(deg)": -29.62676927269085,
        "RAAN(deg)": 279.9978997543013,
        "Satellite Name": "Test1 1252",
        "Satellite Number": 1252,
        "Semi-Major Axis(m)": 6980739.136638005,
        "Time(s)": 50
    },
    {
        "Altitude(m)": 611356.8095832382,
        "Argument of Periapsis(deg)": 0.0006251367547977843,
        "Eccentricity": 0.0,
        "Inclination(deg)": 60.0,
        "Latitude(deg)": -25.04148656774676,
        "Longitude(deg)": 164.2163395849718,
        "Mean Anomaly(deg)": -29.006663127229093,
        "RAAN(deg)": 279.9974797051615,
        "Satellite Name": "Test1 1252",
        "Satellite Number": 1252,
        "Semi-Major Axis(m)": 6980739.136638005,
        "Time(s)": 60
    },
    {
        "Altitude(m)": 611170.1021001554,
        "Argument of Periapsis(deg)": 0.0007293262139307483,
        "Eccentricity": 0.0,
        "Inclination(deg)": 60.0,
        "Latitude(deg)": -24.522027505471964,
        "Longitude(deg)": 164.54943325852375,
        "Mean Anomaly(deg)": -28.386556981767193,
        "RAAN(deg)": 279.9970596560218,
        "Satellite Name": "Test1 1252",
        "Satellite Number": 1252,
        "Semi-Major Axis(m)": 6980739.136638005,
        "Time(s)": 70
    },
    {
        "Altitude(m)": 610984.7713264002,
        "Argument of Periapsis(deg)": 0.0008335156730637124,
        "Eccentricity": 0.0,
        "Inclination(deg)": 60.0,
        "Latitude(deg)": -24.00159335919393,
        "Longitude(deg)": 164.87947120721216,
        "Mean Anomaly(deg)": -27.766450836305438,
        "RAAN(deg)": 279.996639606882,
        "Satellite Name": "Test1 1252",
        "Satellite Number": 1252,
        "Semi-Major Axis(m)": 6980739.136638005,
        "Time(s)": 80
    },
    {
        "Altitude(m)": 610800.882757166,
        "Argument of Periapsis(deg)": 0.0009377051321966765,
        "Eccentricity": 0.0,
        "Inclination(deg)": 60.0,
        "Latitude(deg)": -23.480213812963175,
        "Longitude(deg)": 165.20654545802336,
        "Mean Anomaly(deg)": -27.146344690843588,
        "RAAN(deg)": 279.9962195577423,
        "Satellite Name": "Test1 1252",
        "Satellite Number": 1252,
        "Semi-Major Axis(m)": 6980739.136638005,
        "Time(s)": 90
    },
    {
        "Altitude(m)": 610618.5011025337,
        "Argument of Periapsis(deg)": 0.0010418945913296407,
        "Eccentricity": 0.0,
        "Inclination(deg)": 60.0,
        "Latitude(deg)": -22.957917880088363,
        "Longitude(deg)": 165.5307466910418,
        "Mean Anomaly(deg)": -26.526238545381734,
        "RAAN(deg)": 279.99579950860254,
        "Satellite Name": "Test1 1252",
        "Satellite Number": 1252,
        "Semi-Major Axis(m)": 6980739.136638005,
        "Time(s)": 100
    },
    {
        "Altitude(m)": 610437.6902589097,
        "Argument of Periapsis(deg)": 0.0011460840504626045,
        "Eccentricity": 0.0,
        "Inclination(deg)": 60.0,
        "Latitude(deg)": -22.43473392946984,
        "Longitude(deg)": 165.8521632894712,
        "Mean Anomaly(deg)": -25.906132399919933,
        "RAAN(deg)": 279.9953794594628,
        "Satellite Name": "Test1 1252",
        "Satellite Number": 1252,
        "Semi-Major Axis(m)": 6980739.136638005,
        "Time(s)": 110
    },
    {
        "Altitude(m)": 610258.5132807976,
        "Argument of Periapsis(deg)": 0.0012502735095955685,
        "Eccentricity": 0.0,
        "Inclination(deg)": 60.0,
        "Latitude(deg)": -21.910689711050164,
        "Longitude(deg)": 166.17088190154456,
        "Mean Anomaly(deg)": -25.28602625445808,
        "RAAN(deg)": 279.9949594103231,
        "Satellite Name": "Test1 1252",
        "Satellite Number": 1252,
        "Semi-Major Axis(m)": 6980739.136638005,
        "Time(s)": 120
    },
    {
        "Altitude(m)": 610081.032353003,
        "Argument of Periapsis(deg)": 0.0013544629687285324,
        "Eccentricity": 0.0,
        "Inclination(deg)": 60.0,
        "Latitude(deg)": -21.385812380412432,
        "Longitude(deg)": 166.48698800143714,
        "Mean Anomaly(deg)": -24.66592010899623,
        "RAAN(deg)": 279.99453936118334,
        "Satellite Name": "Test1 1252",
        "Satellite Number": 1252,
        "Semi-Major Axis(m)": 6980739.136638005,
        "Time(s)": 130
    },
    {
        "Altitude(m)": 609905.3087632215,
        "Argument of Periapsis(deg)": 0.0014586524278614966,
        "Eccentricity": 0.0,
        "Inclination(deg)": 60.0,
        "Latitude(deg)": -20.86012852255609,
        "Longitude(deg)": 166.80056493630156,
        "Mean Anomaly(deg)": -24.045813963534375,
        "RAAN(deg)": 279.99411931204355,
        "Satellite Name": "Test1 1252",
        "Satellite Number": 1252,
        "Semi-Major Axis(m)": 6980739.136638005,
        "Time(s)": 140
    },
    {
        "Altitude(m)": 609731.4028750509,
        "Argument of Periapsis(deg)": 0.0015628418869944607,
        "Eccentricity": 0.0,
        "Inclination(deg)": 60.0,
        "Latitude(deg)": -20.33366417488793,
        "Longitude(deg)": 167.11169448516674,
        "Mean Anomaly(deg)": -23.425707818072574,
        "RAAN(deg)": 279.9936992629039,
        "Satellite Name": "Test1 1252",
        "Satellite Number": 1252,
        "Semi-Major Axis(m)": 6980739.136638005,
        "Time(s)": 150
    },
    {
        "Altitude(m)": 609559.3741014048,
        "Argument of Periapsis(deg)": 0.0016670313461274247,
        "Eccentricity": 0.0,
        "Inclination(deg)": 60.0,
        "Latitude(deg)": -19.806444849456664,
        "Longitude(deg)": 167.42045741683006,
        "Mean Anomaly(deg)": -22.80560167261072,
        "RAAN(deg)": 279.9932792137641,
        "Satellite Name": "Test1 1252",
        "Satellite Number": 1252,
        "Semi-Major Axis(m)": 6980739.136638005,
        "Time(s)": 160
    },
    {
        "Altitude(m)": 609389.2808784333,
        "Argument of Periapsis(deg)": 0.0017712208052603888,
        "Eccentricity": 0.0,
        "Inclination(deg)": 60.0,
        "Latitude(deg)": -19.27849555445874,
        "Longitude(deg)": 167.726932533873,
        "Mean Anomaly(deg)": -22.185495527148866,
        "RAAN(deg)": 279.99285916462435,
        "Satellite Name": "Test1 1252",
        "Satellite Number": 1252,
        "Semi-Major Axis(m)": 6980739.136638005,
        "Time(s)": 170
    },
    {
        "Altitude(m)": 609221.1806398352,
        "Argument of Periapsis(deg)": 0.001875410264393353,
        "Eccentricity": 0.0,
        "Inclination(deg)": 60.0,
        "Latitude(deg)": -18.74984081505013,
        "Longitude(deg)": 168.0311972285555,
        "Mean Anomaly(deg)": -21.565389381687012,
        "RAAN(deg)": 279.9924391154846,
        "Satellite Name": "Test1 1252",
        "Satellite Number": 1252,
        "Semi-Major Axis(m)": 6980739.136638005,
        "Time(s)": 180
    },
    {
        "Altitude(m)": 609055.1297916899,
        "Argument of Periapsis(deg)": 0.0019795997235263173,
        "Eccentricity": 0.0,
        "Inclination(deg)": 60.0,
        "Latitude(deg)": -18.220504693490067,
        "Longitude(deg)": 168.33332803772655,
        "Mean Anomaly(deg)": -20.94528323622521,
        "RAAN(deg)": 279.9920190663449,
        "Satellite Name": "Test1 1252",
        "Satellite Number": 1252,
        "Semi-Major Axis(m)": 6980739.136638005,
        "Time(s)": 190
    }
]